SAUDISAT 1C             
1 27607U 02058C   22282.47167932  .00001865  00000+0  27431-3 0  9991
2 27607  64.5545 312.9488 0081673 272.7100  86.4656 14.76300533 65202
SAUDISAT 2              
1 28371U 04025F   22282.13235861  .00000590  00000+0  14857-3 0  9998
2 28371  98.3902 239.1741 0026531 113.7757 246.6220 14.54614956969819
SAUDISAT 3              
1 31118U 07012B   22282.43892855  .00000553  00000+0  10160-3 0  9997
2 31118  97.9796 226.7837 0014807 187.8802 172.2174 14.69383431829849
PISAT                   
1 41784U 16059B   22282.35086547  .00001190  00000+0  23406-3 0  9997
2 41784  97.9047 321.2112 0032052 167.0820 193.1212 14.64034018322355
FLYING LAPTOP           
1 42831U 17042G   22282.41707936  .00002746  00000+0  27566-3 0  9992
2 42831  97.4104 130.1896 0013780 353.5444   6.5561 14.91993759285083
SALSAT                  
1 46495U 20068K   22282.40876122  .00005118  00000+0  36423-3 0  9995
2 46495  97.7367 223.8185 0014809 249.7033 110.2601 15.05005857111323
